     2.10           G: GLONASS NAV DATA                     RINEX VERSION / TYPE
teqc  2015Jun23                         20211122 01:25:48UTCPGM / RUN BY / DATE
Linux 2.4.21-27.ELsmp|Opteron|gcc -static|Linux x86_64|=+   COMMENT
  2021    10    29   -0.000000000000D+00                    CORR TO SYSTEM TIME
                                                            END OF HEADER
10 21 10 30 22 45  0.0-7.655564695597D-05-0.000000000000D+00 8.100000000000D+04
   -4.043482910156D+03-1.994846343994D+00-9.313225746155D-10 0.000000000000D+00
    1.158842138672D+04-2.321949005127D+00-9.313225746155D-10-7.000000000000D+00
   -2.237457519531D+04-8.354206085205D-01 2.793967723846D-09 0.000000000000D+00
12 21 10 30 22 45  0.0 2.744132652879D-04 3.637978807092D-12 8.100000000000D+04
    1.837472509766D+04 7.001914978027D-01 0.000000000000D+00 0.000000000000D+00
    1.646147656250D+04 5.749683380127D-01-9.313225746155D-10-1.000000000000D+00
    6.557742675781D+03-3.418700218201D+00-0.000000000000D+00 0.000000000000D+00
21 21 10 30 22 45  0.0-2.508163452148D-04-2.728484105319D-12 8.100000000000D+04
   -1.511485644531D+04-2.342787742615D+00-2.793967723846D-09 0.000000000000D+00
    1.067399609375D+04 5.710020065308D-01 1.862645149231D-09 4.000000000000D+00
    1.754231640625D+04-2.369623184204D+00-9.313225746155D-10 0.000000000000D+00
 1 21 10 30 22 45  0.0 8.744094520807D-05 0.000000000000D+00 8.205000000000D+04
    7.313360839844D+03-8.830957412720D-01 0.000000000000D+00 0.000000000000D+00
    1.123372412109D+04 2.835744857788D+00-1.862645149231D-09 1.000000000000D+00
   -2.170750927734D+04 1.171061515808D+00 1.862645149231D-09 0.000000000000D+00
12 21 10 30 23 15  0.0 2.744188532233D-04 3.637978807092D-12 8.280000000000D+04
    1.914937744141D+04 1.263999938965D-01-0.000000000000D+00 0.000000000000D+00
    1.686744824219D+04-1.010828018188D-01-1.862645149231D-09-1.000000000000D+00
    2.303872070312D+02-3.566138267517D+00 0.000000000000D+00 0.000000000000D+00
 1 21 10 30 23 15  0.0 8.744280785322D-05 0.000000000000D+00 8.280000000000D+04
    6.168820800781D+03-3.951253890991D-01-9.313225746155D-10 0.000000000000D+00
    1.611703662109D+04 2.541281700134D+00-9.313225746155D-10 1.000000000000D+00
   -1.878814404297D+04 2.051671028137D+00 2.793967723846D-09 0.000000000000D+00
 7 21 10 30 23 15  0.0-4.028994590044D-05 0.000000000000D+00 8.280000000000D+04
   -9.609013671875D+03 4.436388015747D-01-2.793967723846D-09 0.000000000000D+00
    2.122417626953D+04-1.365255355835D+00 1.862645149231D-09 5.000000000000D+00
    1.047483251953D+04 3.177321434021D+00 0.000000000000D+00 0.000000000000D+00
 8 21 10 30 23 15  0.0-6.174296140671D-05-0.000000000000D+00 8.280000000000D+04
   -2.361167968750D+03-1.566505432129D-02-2.793967723846D-09 0.000000000000D+00
    2.469186132812D+04 8.385543823242D-01 0.000000000000D+00 6.000000000000D+00
   -5.966273437500D+03 3.446710586548D+00 1.862645149231D-09 0.000000000000D+00
10 21 10 30 23 15  0.0-7.655657827854D-05-0.000000000000D+00 8.280000000000D+04
   -8.006741699219D+03-2.375201225281D+00-9.313225746155D-10 0.000000000000D+00
    7.604926757812D+03-2.065184593201D+00-0.000000000000D+00-7.000000000000D+00
   -2.299495019531D+04 1.507921218872D-01 2.793967723846D-09 0.000000000000D+00
21 21 10 30 23 15  0.0-2.508219331503D-04-2.728484105319D-12 8.280000000000D+04
   -1.868311279297D+04-1.595579147339D+00-2.793967723846D-09 0.000000000000D+00
    1.186442333984D+04 7.121467590332D-01 2.793967723846D-09 4.000000000000D+00
    1.265307763672D+04-3.027600288391D+00-0.000000000000D+00 0.000000000000D+00
12 21 10 30 23 45  0.0 2.744253724813D-04 2.728484105319D-12 8.460000000000D+04
    1.873117138672D+04-6.106853485107D-01-0.000000000000D+00 0.000000000000D+00
    1.620537841797D+04-5.985879898071D-01-1.862645149231D-09-1.000000000000D+00
   -6.114686035156D+03-3.438179016113D+00 9.313225746155D-10 0.000000000000D+00
 1 21 10 30 23 45  0.0 8.744373917580D-05 0.000000000000D+00 8.460000000000D+04
    5.836717773438D+03 3.146171569824D-03-1.862645149231D-09 0.000000000000D+00
    2.021877001953D+04 1.975625991821D+00-0.000000000000D+00 1.000000000000D+00
   -1.441672607422D+04 2.773970603943D+00 1.862645149231D-09 0.000000000000D+00
 7 21 10 30 23 45  0.0-4.028901457787D-05 0.000000000000D+00 8.460000000000D+04
   -8.914095214844D+03 2.911224365234D-01-1.862645149231D-09 0.000000000000D+00
    1.805847167969D+04-2.127762794495D+00 2.793967723846D-09 5.000000000000D+00
    1.571721777344D+04 2.609918594360D+00-0.000000000000D+00 0.000000000000D+00
 8 21 10 30 23 45  0.0-6.174389272928D-05-0.000000000000D+00 8.460000000000D+04
   -2.187854492188D+03 1.689682006836D-01-2.793967723846D-09 0.000000000000D+00
    2.542728906250D+04-3.338718414307D-02 9.313225746155D-10 6.000000000000D+00
    3.882075195312D+02 3.567994117737D+00 9.313225746155D-10 0.000000000000D+00
21 21 10 30 23 45  0.0-2.508275210857D-04-2.728484105319D-12 8.460000000000D+04
   -2.079803613281D+04-7.473154067993D-01-1.862645149231D-09 0.000000000000D+00
    1.308430859375D+04 5.991353988647D-01 3.725290298462D-09 4.000000000000D+00
    6.783854003906D+03-3.451357841492D+00 0.000000000000D+00 0.000000000000D+00
22 21 10 30 23 45  0.0-1.421803608537D-04-1.818989403546D-12 8.499000000000D+04
   -8.452098144531D+03-2.421762466431D+00-1.862645149231D-09 0.000000000000D+00
    1.360756787109D+04 1.256558418274D+00 2.793967723846D-09-3.000000000000D+00
    1.987100097656D+04-1.881680488586D+00-9.313225746155D-10 0.000000000000D+00
